{"type": "FeatureCollection", "features": [ {"type": "Feature", "properties": {"norad_id": 30758, "name": "FENGYUN 1C DEB", "group": "fengyun-1c-debris", "lat": -58.37138199956024, "lon": 116.15475022854807, "alt_km": 835.0084885625056, "timestamp": "2025-12-08T13:49:32.071371+00:00", "meta": {"OBJECT_NAME": "FENGYUN 1C DEB", "OBJECT_ID": "1999-025ATU", "EPOCH": "2025-12-08T07:35:07.251360", "MEAN_MOTION": 14.17082853, "ECCENTRICITY": 0.00385214, "INCLINATION": 99.0184, "RA_OF_ASC_NODE": 100.948, "ARG_OF_PERICENTER": 16.2645, "MEAN_ANOMALY": 38.9688, "EPHEMERIS_TYPE": 0, "CLASSIFICATION_TYPE": "U", "NORAD_CAT_ID": 30758, "ELEMENT_SET_NO": 999, "REV_AT_EPOCH": 96428, "BSTAR": 0.0016519015, "MEAN_MOTION_DOT": 3.304e-05, "MEAN_MOTION_DDOT": 0}, "tle": {"line1": "1 30758U 99025ATU 25342.31605615  .00003304  00000+0  16519-2 0  9994", "line2": "2 30758  99.0184 100.9480 0038521  16.2645  38.9688 14.17082853964281"}}, "geometry": {"type": "Point", "coordinates": [116.15475022854807, -58.37138199956024]}}, {"type": "Feature", "properties": {"norad_id": 30759, "name": "FENGYUN 1C DEB", "group": "fengyun-1c-debris", "lat": 19.125209260505112, "lon": -86.86302514302645, "alt_km": 705.1457016532249, "timestamp": "2025-12-08T13:49:32.071381+00:00", "meta": {"OBJECT_NAME": "FENGYUN 1C DEB", "OBJECT_ID": "1999-025ATV", "EPOCH": "2025-12-08T06:48:14.605632", "MEAN_MOTION": 14.54363097, "ECCENTRICITY": 0.00094149, "INCLINATION": 99.2576, "RA_OF_ASC_NODE": 89.5712, "ARG_OF_PERICENTER": 177.2561, "MEAN_ANOMALY": 252.373, "EPHEMERIS_TYPE": 0, "CLASSIFICATION_TYPE": "U", "NORAD_CAT_ID": 30759, "ELEMENT_SET_NO": 999, "REV_AT_EPOCH": 97590, "BSTAR": 0.0033378403, "MEAN_MOTION_DOT": 0.00014163, "MEAN_MOTION_DDOT": 0}, "tle": {"line1": "1 30759U 99025ATV 25342.28350238  .00014163  00000+0  33378-2 0  9996", "line2": "2 30759  99.2576  89.5712 0009414 177.2561 252.3730 14.54363097975907"}}, "geometry": {"type": "Point", "coordinates": [-86.86302514302645, 19.125209260505112]}}, {"type": "Feature", "properties": {"norad_id": 30760, "name": "FENGYUN 1C DEB", "group": "fengyun-1c-debris", "lat": -35.422912152468705, "lon": 153.0284352209259, "alt_km": 911.3348590604819, "timestamp": "2025-12-08T13:49:32.071391+00:00", "meta": {"OBJECT_NAME": "FENGYUN 1C DEB", "OBJECT_ID": "1999-025ATW", "EPOCH": "2025-12-08T05:57:50.113152", "MEAN_MOTION": 14.05175345, "ECCENTRICITY": 0.00530795, "INCLINATION": 98.822, "RA_OF_ASC_NODE": 339.0516, "ARG_OF_PERICENTER": 356.2295, "MEAN_ANOMALY": 3.8466, "EPHEMERIS_TYPE": 0, "CLASSIFICATION_TYPE": "U", "NORAD_CAT_ID": 30760, "ELEMENT_SET_NO": 999, "REV_AT_EPOCH": 96159, "BSTAR": 0.0003313291, "MEAN_MOTION_DOT": 4.99e-06, "MEAN_MOTION_DDOT": 0}, "tle": {"line1": "1 30760U 99025ATW 25342.24849668  .00000499  00000+0  33133-3 0  9991", "line2": "2 30760  98.8220 339.0516 0053079 356.2295   3.8466 14.05175345961592"}}, "geometry": {"type": "Point", "coordinates": [153.0284352209259, -35.422912152468705]}}, {"type": "Feature", "properties": {"norad_id": 30761, "name": "FENGYUN 1C DEB", "group": "fengyun-1c-debris", "lat": -46.17180524663927, "lon": 79.0348591409202, "alt_km": 788.6897588479987, "timestamp": "2025-12-08T13:49:32.071402+00:00", "meta": {"OBJECT_NAME": "FENGYUN 1C DEB", "OBJECT_ID": "1999-025ATX", "EPOCH": "2025-12-08T01:03:26.586144", "MEAN_MOTION": 14.35726368, "ECCENTRICITY": 0.00848214, "INCLINATION": 98.9653, "RA_OF_ASC_NODE": 267.9478, "ARG_OF_PERICENTER": 327.7131, "MEAN_ANOMALY": 31.8877, "EPHEMERIS_TYPE": 0, "CLASSIFICATION_TYPE": "U", "NORAD_CAT_ID": 30761, "ELEMENT_SET_NO": 999, "REV_AT_EPOCH": 97674, "BSTAR": 0.0015995285, "MEAN_MOTION_DOT": 4.769e-05, "MEAN_MOTION_DDOT": 0}, "tle": {"line1": "1 30761U 99025ATX 25342.04405771  .00004769  00000+0  15995-2 0  9992", "line2": "2 30761  98.9653 267.9478 0084821 327.7131  31.8877 14.35726368976741"}}, "geometry": {"type": "Point", "coordinates": [79.0348591409202, -46.17180524663927]}}, {"type": "Feature", "properties": {"norad_id": 30762, "name": "FENGYUN 1C DEB", "group": "fengyun-1c-debris", "lat": -61.73776355581182, "lon": 136.60321918959428, "alt_km": 841.3454420356402, "timestamp": "2025-12-08T13:49:32.071412+00:00", "meta": {"OBJECT_NAME": "FENGYUN 1C DEB", "OBJECT_ID": "1999-025ATY", "EPOCH": "2025-12-07T23:01:57.213408", "MEAN_MOTION": 13.9807799, "ECCENTRICITY": 0.01979105, "INCLINATION": 98.8745, "RA_OF_ASC_NODE": 332.9021, "ARG_OF_PERICENTER": 308.3476, "MEAN_ANOMALY": 76.1073, "EPHEMERIS_TYPE": 0, "CLASSIFICATION_TYPE": "U", "NORAD_CAT_ID": 30762, "ELEMENT_SET_NO": 999, "REV_AT_EPOCH": 95571, "BSTAR": 0.00081466525, "MEAN_MOTION_DOT": 1.324e-05, "MEAN_MOTION_DDOT": 0}, "tle": {"line1": "1 30762U 99025ATY 25341.95968997  .00001324  00000+0  81467-3 0  9998", "line2": "2 30762  98.8745 332.9021 0197910 308.3476  76.1073 13.98077990955713"}}, "geometry": {"type": "Point", "coordinates": [136.60321918959428, -61.73776355581182]}}, {"type": "Feature", "properties": {"norad_id": 30763, "name": "FENGYUN 1C DEB", "group": "fengyun-1c-debris", "lat": -76.92868238670641, "lon": -168.76648784154864, "alt_km": 682.7498357787026, "timestamp": "2025-12-08T13:49:32.071422+00:00", "meta": {"OBJECT_NAME": "FENGYUN 1C DEB", "OBJECT_ID": "1999-025ATZ", "EPOCH": "2025-12-08T04:42:26.140032", "MEAN_MOTION": 14.60818241, "ECCENTRICITY": 0.00227105, "INCLINATION": 98.8921, "RA_OF_ASC_NODE": 53.2254, "ARG_OF_PERICENTER": 282.2054, "MEAN_ANOMALY": 141.3699, "EPHEMERIS_TYPE": 0, "CLASSIFICATION_TYPE": "U", "NORAD_CAT_ID": 30763, "ELEMENT_SET_NO": 999, "REV_AT_EPOCH": 97078, "BSTAR": 0.0051437705, "MEAN_MOTION_DOT": 0.00025256, "MEAN_MOTION_DDOT": 0}, "tle": {"line1": "1 30763U 99025ATZ 25342.19613588  .00025256  00000+0  51438-2 0  9993", "line2": "2 30763  98.8921  53.2254 0022710 282.2054 141.3699 14.60818241970783"}}, "geometry": {"type": "Point", "coordinates": [-168.76648784154864, -76.92868238670641]}}, {"type": "Feature", "properties": {"norad_id": 30764, "name": "FENGYUN 1C DEB", "group": "fengyun-1c-debris", "lat": -14.165209085993958, "lon": 130.26112833465714, "alt_km": 433.0575452784351, "timestamp": "2025-12-08T13:49:32.071432+00:00", "meta": {"OBJECT_NAME": "FENGYUN 1C DEB", "OBJECT_ID": "1999-025AUA", "EPOCH": "2025-12-07T08:42:04.625856", "MEAN_MOTION": 15.28614521, "ECCENTRICITY": 0.00759509, "INCLINATION": 98.7785, "RA_OF_ASC_NODE": 311.067, "ARG_OF_PERICENTER": 188.471, "MEAN_ANOMALY": 171.525, "EPHEMERIS_TYPE": 0, "CLASSIFICATION_TYPE": "U", "NORAD_CAT_ID": 30764, "ELEMENT_SET_NO": 999, "REV_AT_EPOCH": 1140, "BSTAR": 0.0014954349, "MEAN_MOTION_DOT": 0.00045514, "MEAN_MOTION_DDOT": 0}, "tle": {"line1": "1 30764U 99025AUA 25341.36255354  .00045514  00000+0  14954-2 0  9996", "line2": "2 30764  98.7785 311.0670 0075950 188.4710 171.5250 15.28614521 11401"}}, "geometry": {"type": "Point", "coordinates": [130.26112833465714, -14.165209085993958]}}, {"type": "Feature", "properties": {"norad_id": 30765, "name": "FENGYUN 1C DEB", "group": "fengyun-1c-debris", "lat": -9.012449645579915, "lon": -152.76738732233133, "alt_km": 805.5456504873428, "timestamp": "2025-12-08T13:49:32.071443+00:00", "meta": {"OBJECT_NAME": "FENGYUN 1C DEB", "OBJECT_ID": "1999-025AUB", "EPOCH": "2025-12-08T02:52:16.392288", "MEAN_MOTION": 14.14688855, "ECCENTRICITY": 0.00680718, "INCLINATION": 98.7883, "RA_OF_ASC_NODE": 28.1893, "ARG_OF_PERICENTER": 222.2322, "MEAN_ANOMALY": 163.929, "EPHEMERIS_TYPE": 0, "CLASSIFICATION_TYPE": "U", "NORAD_CAT_ID": 30765, "ELEMENT_SET_NO": 999, "REV_AT_EPOCH": 96757, "BSTAR": 0.0011815315, "MEAN_MOTION_DOT": 2.281e-05, "MEAN_MOTION_DDOT": 0}, "tle": {"line1": "1 30765U 99025AUB 25342.11963417  .00002281  00000+0  11815-2 0  9994", "line2": "2 30765  98.7883  28.1893 0068071 222.2322 163.9290 14.14688855967578"}}, "geometry": {"type": "Point", "coordinates": [-152.76738732233133, -9.012449645579915]}}, {"type": "Feature", "properties": {"norad_id": 30766, "name": "FENGYUN 1C DEB", "group": "fengyun-1c-debris", "lat": 34.41647534347825, "lon": 169.12282764432726, "alt_km": 827.0336315159166, "timestamp": "2025-12-08T13:49:32.071453+00:00", "meta": {"OBJECT_NAME": "FENGYUN 1C DEB", "OBJECT_ID": "1999-025AUC", "EPOCH": "2025-12-07T19:13:34.697856", "MEAN_MOTION": 14.09511398, "ECCENTRICITY": 0.00837919, "INCLINATION": 98.6731, "RA_OF_ASC_NODE": 342.3735, "ARG_OF_PERICENTER": 88.3267, "MEAN_ANOMALY": 85.7006, "EPHEMERIS_TYPE": 0, "CLASSIFICATION_TYPE": "U", "NORAD_CAT_ID": 30766, "ELEMENT_SET_NO": 999, "REV_AT_EPOCH": 62727, "BSTAR": 0.0010705424, "MEAN_MOTION_DOT": 1.892e-05, "MEAN_MOTION_DDOT": 0}, "tle": {"line1": "1 30766U 99025AUC 25341.80109604  .00001892  00000+0  10705-2 0  9994", "line2": "2 30766  98.6731 342.3735 0083791  88.3267  85.7006 14.09511398627278"}}, "geometry": {"type": "Point", "coordinates": [169.12282764432726, 34.41647534347825]}}, {"type": "Feature", "properties": {"norad_id": 30768, "name": "FENGYUN 1C DEB", "group": "fengyun-1c-debris", "lat": -8.745899685685563, "lon": -109.09892319350082, "alt_km": 732.378030204999, "timestamp": "2025-12-08T13:49:32.071463+00:00", "meta": {"OBJECT_NAME": "FENGYUN 1C DEB", "OBJECT_ID": "1999-025AUE", "EPOCH": "2025-12-08T04:48:16.032384", "MEAN_MOTION": 14.47785518, "ECCENTRICITY": 0.00256477, "INCLINATION": 98.6186, "RA_OF_ASC_NODE": 71.8551, "ARG_OF_PERICENTER": 114.03, "MEAN_ANOMALY": 276.4453, "EPHEMERIS_TYPE": 0, "CLASSIFICATION_TYPE": "U", "NORAD_CAT_ID": 30768, "ELEMENT_SET_NO": 999, "REV_AT_EPOCH": 97805, "BSTAR": 0.0027983048, "MEAN_MOTION_DOT": 0.00010356, "MEAN_MOTION_DDOT": 0}, "tle": {"line1": "1 30768U 99025AUE 25342.20018556  .00010356  00000+0  27983-2 0  9997", "line2": "2 30768  98.6186  71.8551 0025647 114.0300 276.4453 14.47785518978054"}}, "geometry": {"type": "Point", "coordinates": [-109.09892319350082, -8.745899685685563]}}]}